[{"OBJECT_NAME":"RASSVET-3 11","OBJECT_ID":"2026-061L","EPOCH":"2026-04-02T19:09:19.879200","MEAN_MOTION":15.88983546,"ECCENTRICITY":0.0026072,"INCLINATION":82.2966,"RA_OF_ASC_NODE":97.2868,"ARG_OF_PERICENTER":36.6755,"MEAN_ANOMALY":323.6294,"EPHEMERIS_TYPE":0,"CLASSIFICATION_TYPE":"U","NORAD_CAT_ID":68370,"ELEMENT_SET_NO":999,"REV_AT_EPOCH":160,"BSTAR":0.00029073,"MEAN_MOTION_DOT":0.00084951,"MEAN_MOTION_DDOT":1.3568e-6},{"OBJECT_NAME":"RASSVET-3 12","OBJECT_ID":"2026-061M","EPOCH":"2026-04-02T19:09:01.325664","MEAN_MOTION":15.89044231,"ECCENTRICITY":0.0026029,"INCLINATION":82.2966,"RA_OF_ASC_NODE":97.2866,"ARG_OF_PERICENTER":36.6844,"MEAN_ANOMALY":323.6202,"EPHEMERIS_TYPE":0,"CLASSIFICATION_TYPE":"U","NORAD_CAT_ID":68371,"ELEMENT_SET_NO":999,"REV_AT_EPOCH":160,"BSTAR":0.00029647,"MEAN_MOTION_DOT":0.00086879,"MEAN_MOTION_DDOT":1.4731e-6},{"OBJECT_NAME":"RASSVET-3 13","OBJECT_ID":"2026-061N","EPOCH":"2026-04-02T19:08:46.805280","MEAN_MOTION":15.89046497,"ECCENTRICITY":0.0025838,"INCLINATION":82.2967,"RA_OF_ASC_NODE":97.2862,"ARG_OF_PERICENTER":36.55,"MEAN_ANOMALY":323.7528,"EPHEMERIS_TYPE":0,"CLASSIFICATION_TYPE":"U","NORAD_CAT_ID":68372,"ELEMENT_SET_NO":999,"REV_AT_EPOCH":160,"BSTAR":0.00029343,"MEAN_MOTION_DOT":0.00085965,"MEAN_MOTION_DDOT":1.4185e-6},{"OBJECT_NAME":"RASSVET-3 14","OBJECT_ID":"2026-061P","EPOCH":"2026-04-02T14:36:13.040064","MEAN_MOTION":15.89091848,"ECCENTRICITY":0.0025836,"INCLINATION":82.2968,"RA_OF_ASC_NODE":97.4997,"ARG_OF_PERICENTER":37.1973,"MEAN_ANOMALY":323.1081,"EPHEMERIS_TYPE":0,"CLASSIFICATION_TYPE":"U","NORAD_CAT_ID":68373,"ELEMENT_SET_NO":999,"REV_AT_EPOCH":157,"BSTAR":0.0002948,"MEAN_MOTION_DOT":0.00086561,"MEAN_MOTION_DDOT":1.4551e-6},{"OBJECT_NAME":"RASSVET-3 15","OBJECT_ID":"2026-061Q","EPOCH":"2026-03-31T15:44:51.780768","MEAN_MOTION":15.88835235,"ECCENTRICITY":0.00260596,"INCLINATION":82.297,"RA_OF_ASC_NODE":99.7096,"ARG_OF_PERICENTER":44.1575,"MEAN_ANOMALY":316.177,"EPHEMERIS_TYPE":0,"CLASSIFICATION_TYPE":"U","NORAD_CAT_ID":68374,"ELEMENT_SET_NO":999,"REV_AT_EPOCH":126,"BSTAR":0.00022470769,"MEAN_MOTION_DOT":0.00065252,"MEAN_MOTION_DDOT":3.3249e-7},{"OBJECT_NAME":"RASSVET-3 16","OBJECT_ID":"2026-061R","EPOCH":"2026-04-02T19:06:11.199744","MEAN_MOTION":15.89747619,"ECCENTRICITY":0.0024831,"INCLINATION":82.2959,"RA_OF_ASC_NODE":97.2829,"ARG_OF_PERICENTER":37.1583,"MEAN_ANOMALY":323.1401,"EPHEMERIS_TYPE":0,"CLASSIFICATION_TYPE":"U","NORAD_CAT_ID":68375,"ELEMENT_SET_NO":999,"REV_AT_EPOCH":160,"BSTAR":0.00045935,"MEAN_MOTION_DOT":0.00138896,"MEAN_MOTION_DDOT":5.6293e-6},{"OBJECT_NAME":"SUPERVIEW NEO-2 OBJECT A","OBJECT_ID":"2026-062A","EPOCH":"2026-04-02T21:26:38.863968","MEAN_MOTION":15.20606398,"ECCENTRICITY":0.0006431,"INCLINATION":97.4366,"RA_OF_ASC_NODE":101.2682,"ARG_OF_PERICENTER":236.6518,"MEAN_ANOMALY":123.4102,"EPHEMERIS_TYPE":0,"CLASSIFICATION_TYPE":"U","NORAD_CAT_ID":68377,"ELEMENT_SET_NO":999,"REV_AT_EPOCH":121,"BSTAR":0.00018358,"MEAN_MOTION_DOT":3.957e-5,"MEAN_MOTION_DDOT":0},{"OBJECT_NAME":"SUPERVIEW NEO-2 OBJECT B","OBJECT_ID":"2026-062B","EPOCH":"2026-03-31T17:19:08.069952","MEAN_MOTION":15.2058506,"ECCENTRICITY":0.00089524,"INCLINATION":97.4347,"RA_OF_ASC_NODE":99.1253,"ARG_OF_PERICENTER":250.4427,"MEAN_ANOMALY":109.5842,"EPHEMERIS_TYPE":0,"CLASSIFICATION_TYPE":"U","NORAD_CAT_ID":68378,"ELEMENT_SET_NO":999,"REV_AT_EPOCH":88,"BSTAR":0.00019790811,"MEAN_MOTION_DOT":4.27e-5,"MEAN_MOTION_DDOT":0},{"OBJECT_NAME":"CZ-2D R/B","OBJECT_ID":"2026-062C","EPOCH":"2026-04-02T20:07:32.606112","MEAN_MOTION":15.31165523,"ECCENTRICITY":0.0052887,"INCLINATION":97.4979,"RA_OF_ASC_NODE":101.2,"ARG_OF_PERICENTER":34.2772,"MEAN_ANOMALY":326.1863,"EPHEMERIS_TYPE":0,"CLASSIFICATION_TYPE":"U","NORAD_CAT_ID":68379,"ELEMENT_SET_NO":999,"REV_AT_EPOCH":121,"BSTAR":0.00050681,"MEAN_MOTION_DOT":0.00015868,"MEAN_MOTION_DDOT":0},{"OBJECT_NAME":"STARLINK-36296","OBJECT_ID":"2026-063A","EPOCH":"2026-04-02T18:00:01.999296","MEAN_MOTION":15.97982213,"ECCENTRICITY":0.0001508,"INCLINATION":97.2834,"RA_OF_ASC_NODE":233.5389,"ARG_OF_PERICENTER":67.863,"MEAN_ANOMALY":74.8208,"EPHEMERIS_TYPE":0,"CLASSIFICATION_TYPE":"U","NORAD_CAT_ID":68380,"ELEMENT_SET_NO":999,"REV_AT_EPOCH":232,"BSTAR":-0.003847,"MEAN_MOTION_DOT":-0.01726598,"MEAN_MOTION_DDOT":0.00088222},{"OBJECT_NAME":"STARLINK-37111","OBJECT_ID":"2026-063B","EPOCH":"2026-04-02T18:00:01.999296","MEAN_MOTION":15.98104329,"ECCENTRICITY":0.0001572,"INCLINATION":97.2834,"RA_OF_ASC_NODE":233.5399,"ARG_OF_PERICENTER":67.6845,"MEAN_ANOMALY":76.8108,"EPHEMERIS_TYPE":0,"CLASSIFICATION_TYPE":"U","NORAD_CAT_ID":68381,"ELEMENT_SET_NO":999,"REV_AT_EPOCH":232,"BSTAR":-0.0038169,"MEAN_MOTION_DOT":-0.01724681,"MEAN_MOTION_DDOT":0.00088159},{"OBJECT_NAME":"STARLINK-36946","OBJECT_ID":"2026-063C","EPOCH":"2026-04-02T18:00:01.999296","MEAN_MOTION":15.98248988,"ECCENTRICITY":0.0001481,"INCLINATION":97.2827,"RA_OF_ASC_NODE":233.5405,"ARG_OF_PERICENTER":74.3083,"MEAN_ANOMALY":72.6109,"EPHEMERIS_TYPE":0,"CLASSIFICATION_TYPE":"U","NORAD_CAT_ID":68382,"ELEMENT_SET_NO":999,"REV_AT_EPOCH":232,"BSTAR":-0.0038222,"MEAN_MOTION_DOT":-0.01740716,"MEAN_MOTION_DDOT":0.00089842},{"OBJECT_NAME":"STARLINK-37121","OBJECT_ID":"2026-063D","EPOCH":"2026-04-02T18:00:01.999296","MEAN_MOTION":15.98510861,"ECCENTRICITY":0.0001608,"INCLINATION":97.2829,"RA_OF_ASC_NODE":233.5429,"ARG_OF_PERICENTER":66.6097,"MEAN_ANOMALY":84.9503,"EPHEMERIS_TYPE":0,"CLASSIFICATION_TYPE":"U","NORAD_CAT_ID":68383,"ELEMENT_SET_NO":999,"REV_AT_EPOCH":232,"BSTAR":-0.0037639,"MEAN_MOTION_DOT":-0.01739258,"MEAN_MOTION_DDOT":0.00089964},{"OBJECT_NAME":"STARLINK-37137","OBJECT_ID":"2026-063E","EPOCH":"2026-04-02T18:00:01.999296","MEAN_MOTION":15.98372709,"ECCENTRICITY":0.0001639,"INCLINATION":97.2831,"RA_OF_ASC_NODE":233.5416,"ARG_OF_PERICENTER":66.3758,"MEAN_ANOMALY":82.6105,"EPHEMERIS_TYPE":0,"CLASSIFICATION_TYPE":"U","NORAD_CAT_ID":68384,"ELEMENT_SET_NO":999,"REV_AT_EPOCH":232,"BSTAR":-0.0037777,"MEAN_MOTION_DOT":-0.01732404,"MEAN_MOTION_DDOT":0.00089164},{"OBJECT_NAME":"STARLINK-37128","OBJECT_ID":"2026-063F","EPOCH":"2026-04-02T18:00:01.999296","MEAN_MOTION":15.98657525,"ECCENTRICITY":0.0001616,"INCLINATION":97.2831,"RA_OF_ASC_NODE":233.544,"ARG_OF_PERICENTER":74.3986,"MEAN_ANOMALY":79.758,"EPHEMERIS_TYPE":0,"CLASSIFICATION_TYPE":"U","NORAD_CAT_ID":68385,"ELEMENT_SET_NO":999,"REV_AT_EPOCH":227,"BSTAR":-0.0037773,"MEAN_MOTION_DOT":-0.01759455,"MEAN_MOTION_DDOT":0.00092081},{"OBJECT_NAME":"STARLINK-37198","OBJECT_ID":"2026-063G","EPOCH":"2026-04-02T18:00:01.999296","MEAN_MOTION":15.98780711,"ECCENTRICITY":0.0001542,"INCLINATION":97.2825,"RA_OF_ASC_NODE":233.5446,"ARG_OF_PERICENTER":70.5188,"MEAN_ANOMALY":85.6578,"EPHEMERIS_TYPE":0,"CLASSIFICATION_TYPE":"U","NORAD_CAT_ID":68386,"ELEMENT_SET_NO":999,"REV_AT_EPOCH":232,"BSTAR":-0.0037378,"MEAN_MOTION_DOT":-0.01753101,"MEAN_MOTION_DDOT":0.00091586}]
